NORAD_CAT_ID,OBJECT_NAME,OBJECT_TYPE,EPOCH,MEAN_MOTION,ECCENTRICITY,INCLINATION,RA_OF_ASC_NODE,ARG_OF_PERICENTER,MEAN_ANOMALY,BSTAR,MEAN_MOTION_DOT,MEAN_MOTION_DDOT,TLE_LINE0,TLE_LINE1,TLE_LINE2,SEMIMAJOR_AXIS,PERIOD,APOGEE,PERIGEE,DECAYED
53991.0,STARLINK-5118,PAYLOAD,2023-03-24 05:00:59,15.07275108,0.0001442,53.2185,16.4128,87.5741,272.5416,0.0056524,0.00086987,0.0,0 STARLINK-5118,1 53991U 22125AD  23083.20902617  .00086987  00000-0  56524-2 0  9994,2 53991  53.2185  16.4128 0001442  87.5741 272.5416 15.07275108 26447,6922.668,95.537,545.531,543.535,0.0
53991.0,STARLINK-5118,PAYLOAD,2023-03-24 22:31:22,15.07225592,0.0001063,53.2183,13.1475,88.4057,271.7057,0.0014662,0.00022117,0.0,0 STARLINK-5118,1 53991U 22125AD  23083.93845065  .00022117  00000-0  14662-2 0  9999,2 53991  53.2183  13.1475 0001063  88.4057 271.7057 15.07225592 26470,6922.819,95.54,545.42,543.948,0.0
53991.0,STARLINK-5118,PAYLOAD,2023-03-25 01:42:20,15.07234944,0.0001024,53.2177,12.5539,91.6012,268.5097,0.0015936,0.00024077,0.0,0 STARLINK-5118,1 53991U 22125AD  23084.07107154  .00024077  00000-0  15936-2 0  9997,2 53991  53.2177  12.5539 0001024  91.6012 268.5097 15.07234944 26571,6922.791,95.539,545.365,543.947,0.0
53991.0,STARLINK-5118,PAYLOAD,2023-03-25 22:23:43,15.07187756,9.33e-05,53.2181,8.6946,123.3103,236.7978,0.0010625,0.00015919,0.0,0 STARLINK-5118,1 53991U 22125AD  23084.93313773  .00015919  00000-0  10625-2 0  9993,2 53991  53.2181   8.6946 0000933 123.3103 236.7978 15.07187756 26625,6922.935,95.542,545.446,544.154,0.0
53991.0,STARLINK-5118,PAYLOAD,2023-03-26 01:34:42,15.07181481,0.00012,53.2185,8.101,123.3099,236.8007,0.00094777,0.00014163,0.0,0 STARLINK-5118,1 53991U 22125AD  23085.06576414  .00014163  00000-0  94777-3 0  9992,2 53991  53.2185   8.1010 0001200 123.3099 236.8007 15.07181481 26722,6922.954,95.543,545.65,543.989,0.0
53991.0,STARLINK-5118,PAYLOAD,2023-03-26 22:16:04,15.07190849,0.000126,53.2185,4.2392,123.2887,236.8226,0.00052334,7.689e-05,0.0,0 STARLINK-5118,1 53991U 22125AD  23085.92782988  .00007689  00000-0  52334-3 0  9990,2 53991  53.2185   4.2392 0001260 123.2887 236.8226 15.07190849 26778,6922.926,95.542,545.663,543.918,0.0
53991.0,STARLINK-5118,PAYLOAD,2023-03-26 23:51:33,15.07192908,0.0001279,53.2185,3.9423,123.1269,236.9846,0.00055596,8.187e-05,0.0,0 STARLINK-5118,1 53991U 22125AD  23085.99414199  .00008187  00000-0  55596-3 0  9990,2 53991  53.2185   3.9423 0001279 123.1269 236.9846 15.07192908 26869,6922.919,95.542,545.67,543.899,0.0
53991.0,STARLINK-5118,PAYLOAD,2023-03-27 22:08:24,15.07213879,0.0001293,53.2188,359.7852,125.234,234.8772,0.00063448,9.39e-05,0.0,0 STARLINK-5118,1 53991U 22125AD  23086.92250711  .00009390  00000-0  63448-3 0  9994,2 53991  53.2188 359.7852 0001293 125.2340 234.8772 15.07213879 26922,6922.855,95.541,545.615,543.825,0.0
53991.0,STARLINK-5118,PAYLOAD,2023-03-28 01:19:23,15.07220626,0.0001298,53.2183,359.1926,126.7023,233.4088,0.00077578,0.0001155,0.0,0 STARLINK-5118,1 53991U 22125AD  23087.05512911  .00011550  00000-0  77578-3 0  9992,2 53991  53.2183 359.1926 0001298 126.7023 233.4088 15.07220626 27027,6922.835,95.54,545.598,543.801,0.0
53991.0,STARLINK-5118,PAYLOAD,2023-03-29 01:11:42,15.07221819,0.0001376,53.2171,354.7412,138.353,221.7566,0.00036777,5.322e-05,0.0,0 STARLINK-5118,1 53991U 22125AD  23088.04980085  .00005322  00000-0  36777-3 0  9999,2 53991  53.2171 354.7412 0001376 138.3530 221.7566 15.07221819 27176,6922.831,95.54,545.649,543.743,0.0
53991.0,STARLINK-5118,PAYLOAD,2023-03-29 02:47:12,15.07225561,0.0001173,53.2172,354.4398,119.5119,240.599,0.00048428,7.1e-05,0.0,0 STARLINK-5118,1 53991U 22125AD  23088.11611209  .00007100  00000-0  48428-3 0  9998,2 53991  53.2172 354.4398 0001173 119.5119 240.5990 15.07225561 27107,6922.819,95.54,545.497,543.872,0.0
53991.0,STARLINK-5118,PAYLOAD,2023-03-30 02:39:31,15.0722629,0.0001115,53.2174,349.9868,107.9982,252.1131,0.00067423,0.0001,0.0,0 STARLINK-5118,1 53991U 22125AD  23089.11078450  .00010000  00000-0  67423-3 0  9993,2 53991  53.2174 349.9868 0001115 107.9982 252.1131 15.07226290 27336,6922.817,95.54,545.454,543.91,0.0
53991.0,STARLINK-5118,PAYLOAD,2023-03-30 10:36:58,15.07217646,8.79e-05,53.2168,348.5048,81.3638,278.7453,0.00030461,4.358e-05,0.0,0 STARLINK-5118,1 53991U 22125AD  23089.44234705  .00004358  00000-0  30461-3 0  9997,2 53991  53.2168 348.5048 0000879  81.3638 278.7453 15.07217646 27384,6922.844,95.54,545.317,544.1,0.0
53991.0,STARLINK-5118,PAYLOAD,2023-03-31 20:02:15,15.0720018,0.0001083,53.218,342.2656,95.427,264.6845,9.5369e-05,1.169e-05,0.0,0 STARLINK-5118,1 53991U 22125AD  23090.83489818  .00001169  00000-0  95369-4 0  9995,2 53991  53.2180 342.2656 0001083  95.4270 264.6845 15.07200180 27597,6922.897,95.541,545.512,544.012,0.0
53991.0,STARLINK-5118,PAYLOAD,2023-04-01 02:24:12,15.07202817,0.0001223,53.2178,341.0776,72.6438,287.4688,0.00050436,7.402e-05,0.0,0 STARLINK-5118,1 53991U 22125AD  23091.10014887  .00007402  00000-0  50436-3 0  9997,2 53991  53.2178 341.0776 0001223  72.6438 287.4688 15.07202817 27556,6922.889,95.541,545.601,543.907,0.0
53991.0,STARLINK-5118,PAYLOAD,2023-04-01 16:43:37,15.07189306,0.0001445,53.2178,338.4041,70.7111,289.4036,0.00019862,2.74e-05,0.0,0 STARLINK-5118,1 53991U 22125AD  23091.69696558  .00002740  00000-0  19862-3 0  9990,2 53991  53.2178 338.4041 0001445  70.7111 289.4036 15.07189306 27729,6922.931,95.542,545.796,543.795,0.0
53991.0,STARLINK-5118,PAYLOAD,2023-04-01 19:54:36,15.07194168,0.0001304,53.2174,337.8108,75.2637,284.8498,0.00011899,1.528e-05,0.0,0 STARLINK-5118,1 53991U 22125AD  23091.82958895  .00001528  00000-0  11899-3 0  9995,2 53991  53.2174 337.8108 0001304  75.2637 284.8498 15.07194168 27665,6922.916,95.542,545.683,543.878,0.0
53991.0,STARLINK-5118,PAYLOAD,2023-04-02 15:00:28,15.0720088,0.0001344,53.2173,334.2471,75.9665,284.1476,0.00023554,3.303e-05,0.0,0 STARLINK-5118,1 53991U 22125AD  23092.62533524  .00003303  00000-0  23554-3 0  9996,2 53991  53.2173 334.2471 0001344  75.9665 284.1476 15.07200880 27781,6922.895,95.541,545.691,543.83,0.0
53991.0,STARLINK-5118,PAYLOAD,2023-04-02 19:46:56,15.07208014,0.000116,53.2174,333.3588,82.1377,277.9746,0.00035292,5.093e-05,0.0,0 STARLINK-5118,1 53991U 22125AD  23092.82426809  .00005093  00000-0  35292-3 0  9995,2 53991  53.2174 333.3588 0001160  82.1377 277.9746 15.07208014 27896,6922.873,95.541,545.541,543.935,0.0
53991.0,STARLINK-5118,PAYLOAD,2023-04-02 21:22:26,15.07211272,0.0001184,53.2174,333.062,83.8655,276.2471,0.00045985,6.724e-05,0.0,0 STARLINK-5118,1 53991U 22125AD  23092.89057963  .00006724  00000-0  45985-3 0  9995,2 53991  53.2174 333.0620 0001184  83.8655 276.2471 15.07211272 27823,6922.863,95.541,545.548,543.909,0.0
53991.0,STARLINK-5118,PAYLOAD,2023-04-03 00:33:24,15.07219512,0.0001132,53.2176,332.4685,87.3764,272.7357,0.00075046,0.00011163,0.0,0 STARLINK-5118,1 53991U 22125AD  23093.02320197  .00011163  00000-0  75046-3 0  9997,2 53991  53.2176 332.4685 0001132  87.3764 272.7357 15.07219512 27922,6922.838,95.54,545.487,543.919,0.0
53991.0,STARLINK-5118,PAYLOAD,2023-04-03 21:14:46,15.07198771,0.0001501,53.2186,328.6111,74.2212,285.8945,0.00022384,3.125e-05,0.0,0 STARLINK-5118,1 53991U 22125AD  23093.88526619  .00003125  00000-0  22384-3 0  9994,2 53991  53.2186 328.6111 0001501  74.2212 285.8945 15.07198771 27973,6922.902,95.541,545.806,543.727,0.0
53991.0,STARLINK-5118,PAYLOAD,2023-04-04 00:25:45,15.072044,0.000115,53.2168,328.0145,90.6824,269.4299,0.0002259,3.157e-05,0.0,0 STARLINK-5118,1 53991U 22125AD  23094.01788793  .00003157  00000-0  22590-3 0  9997,2 53991  53.2168 328.0145 0001150  90.6824 269.4299 15.07204400 28074,6922.884,95.541,545.545,543.953,0.0
53991.0,STARLINK-5118,PAYLOAD,2023-04-04 21:07:06,15.07222466,9.24e-05,53.2156,324.1533,82.0919,278.0177,0.00074144,0.00011026,0.0,0 STARLINK-5118,1 53991U 22125AD  23094.87993794  .00011026  00000-0  74144-3 0  9996,2 53991  53.2156 324.1533 0000924  82.0919 278.0177 15.07222466 28126,6922.829,95.54,545.334,544.054,0.0
53991.0,STARLINK-5118,PAYLOAD,2023-04-05 00:18:05,15.07228664,0.0001047,53.2158,323.5597,79.5053,280.6056,0.00086718,0.0001295,0.0,0 STARLINK-5118,1 53991U 22125AD  23095.01255974  .00012950  00000-0  86718-3 0  9991,2 53991  53.2158 323.5597 0001047  79.5053 280.6056 15.07228664 28220,6922.81,95.54,545.4,543.95,0.0
53991.0,STARLINK-5118,PAYLOAD,2023-04-05 08:15:31,15.07223996,0.000108,53.2159,322.0763,90.6054,269.5061,0.00035299,5.097e-05,0.0,0 STARLINK-5118,1 53991U 22125AD  23095.34411890  .00005097  00000-0  35299-3 0  9990,2 53991  53.2159 322.0763 0001080  90.6054 269.5061 15.07223996 28272,6922.824,95.54,545.437,543.942,0.0
53991.0,STARLINK-5118,PAYLOAD,2023-04-05 20:59:26,15.07209546,0.0001131,53.2157,319.6995,90.2609,269.8512,0.00022354,3.121e-05,0.0,0 STARLINK-5118,1 53991U 22125AD  23095.87461588  .00003121  00000-0  22354-3 0  9991,2 53991  53.2157 319.6995 0001131  90.2609 269.8512 15.07209546 28277,6922.869,95.541,545.517,543.951,0.0
53991.0,STARLINK-5118,PAYLOAD,2023-04-06 00:10:25,15.0721554,0.0001139,53.2159,319.1057,90.3061,269.8061,0.00062705,9.277e-05,0.0,0 STARLINK-5118,1 53991U 22125AD  23096.00723929  .00009277  00000-0  62705-3 0  9999,2 53991  53.2159 319.1057 0001139  90.3061 269.8061 15.07215540 28375,6922.85,95.54,545.504,543.927,0.0
53991.0,STARLINK-5118,PAYLOAD,2023-04-07 11:11:11,15.07212552,9.83e-05,53.2162,312.5745,80.4175,279.6927,0.00067598,0.00010023,0.0,0 STARLINK-5118,1 53991U 22125AD  23097.46610764  .00010023  00000-0  67598-3 0  9998,2 53991  53.2162 312.5745 0000983  80.4175 279.6927 15.07212552 28596,6922.859,95.541,545.405,544.044,0.0
53991.0,STARLINK-5118,PAYLOAD,2023-04-07 14:22:10,15.07208649,0.0001227,53.2151,311.9787,87.9273,272.1859,0.00032264,4.632e-05,0.0,0 STARLINK-5118,1 53991U 22125AD  23097.59873084  .00004632  00000-0  32264-3 0  9999,2 53991  53.2151 311.9787 0001227  87.9273 272.1859 15.07208649 28534,6922.871,95.541,545.586,543.887,0.0
